OBJECT_NAME,OBJECT_ID,EPOCH,MEAN_MOTION,ECCENTRICITY,INCLINATION,RA_OF_ASC_NODE,ARG_OF_PERICENTER,MEAN_ANOMALY,EPHEMERIS_TYPE,CLASSIFICATION_TYPE,NORAD_CAT_ID,ELEMENT_SET_NO,REV_AT_EPOCH,BSTAR,MEAN_MOTION_DOT,MEAN_MOTION_DDOT
APRIZESAT 2,2004-025A,2026-06-25T16:53:39.395616,14.38039119,.0104678,98.1021,342.2025,223.8594,135.4249,0,U,28366,999,15286,.74118E-4,.196E-5,0
SAUDICOMSAT 1,2004-025D,2026-06-25T14:37:39.923904,14.55479893,.0032101,98.5770,186.9681,0.1034,0.0164,0,U,28369,999,16535,.9455E-4,.364E-5,0
SAUDICOMSAT 2,2004-025E,2026-06-25T19:40:42.287232,14.49985427,.0054448,98.6639,189.3104,232.8250,126.7965,0,U,28370,999,16135,.68062E-4,.218E-5,0
APRIZESAT 1,2004-025G,2026-06-25T11:54:44.384256,14.51781340,.00455,98.6302,187.4481,129.0332,231.4925,0,U,28372,999,16311,.77491E-4,.267E-5,0
NANOSAT-1,2004-049B,2026-06-25T19:43:40.101024,14.80175081,.000272,98.2285,313.6945,261.7414,98.3488,0,U,28493,999,15672,.13359E-3,.959E-5,0
SAUDICOMSAT 7,2007-012C,2026-06-25T20:21:57.312864,14.66117630,.0055903,98.3780,151.1575,168.0170,192.2377,0,U,31119,999,2370,.92666E-4,.467E-5,0
SAUDICOMSAT 6,2007-012E,2026-06-25T20:19:55.317792,14.62567362,.0070589,98.4101,144.5248,300.4507,58.9733,0,U,31121,999,2145,.10382E-3,.492E-5,0
SAUDICOMSAT 5,2007-012H,2026-06-25T21:04:26.044608,14.68167001,.0048721,98.3493,151.9329,98.0554,262.6182,0,U,31124,999,2487,.12198E-3,.661E-5,0
SAUDICOMSAT 3,2007-012J,2026-06-25T09:58:05.248992,14.70718774,.0039764,98.3146,152.0084,27.8552,332.4771,0,U,31125,999,2603,.14377E-3,.833E-5,0
SAUDICOMSAT 4,2007-012L,2026-06-25T19:57:32.383584,14.64519524,.006232,98.3986,149.5786,230.6776,128.8892,0,U,31127,999,2255,.83827E-4,.403E-5,0
APRIZESAT 4,2009-041D,2026-06-25T03:30:59.728896,14.83888656,.00420114,98.1409,251.6256,296.5870,63.1042,0,U,35684,999,91254,.77387811E-4,.593E-5,0
APRIZESAT 3,2009-041F,2026-06-25T09:23:35.223360,14.96266472,.0062609,98.2074,330.0086,41.0217,319.5687,0,U,35686,999,91760,.10807E-3,.12E-4,0
S-NET D,2018-014G,2026-06-25T17:00:26.818272,15.16746562,.0008026,97.5359,81.4457,2.7600,357.3675,0,U,43186,999,46005,.28398E-3,.5508E-4,0
S-NET B,2018-014H,2026-06-25T17:17:10.730976,15.16717275,.0008454,97.5364,81.4444,356.9768,3.1412,0,U,43187,999,46005,.28172E-3,.5459E-4,0
S-NET A,2018-014J,2026-06-25T16:58:45.820128,15.16755198,.0008381,97.5375,81.6419,358.0843,2.0356,0,U,43188,999,46005,.29135E-3,.5654E-4,0
S-NET C,2018-014K,2026-06-25T17:22:49.342080,15.16709603,.0009468,97.5389,81.7349,348.6118,11.4899,0,U,43189,999,45860,.28684E-3,.5559E-4,0
SALSAT,2020-068K,2026-06-25T17:08:00.529728,15.29911798,.00078,97.8851,180.2981,271.7296,88.3050,0,U,46495,999,31666,.30719E-3,.8822E-4,0
OOV-CUBE (TUBSAT-30),2024-128F,2026-06-25T08:56:48.001920,15.02800403,.0043615,61.9924,197.0293,135.5897,224.8705,0,U,60240,999,10734,.13378E-3,.1619E-4,0
LPNTSAT-001 (IOD-1),2026-065A,2026-06-25T15:25:53.474592,15.18577782,.0015761,97.4014,56.9736,340.9774,19.0870,0,U,68408,999,1354,.14007E-3,.2836E-4,0
