APRIZESAT 2             
1 28366U 04025A   26176.70392819  .00000196  00000+0  74118-4 0  9997
2 28366  98.1021 342.2025 0104678 223.8594 135.4249 14.38039119152864
SAUDICOMSAT 1           
1 28369U 04025D   26176.60948986  .00000364  00000+0  94550-4 0  9990
2 28369  98.5770 186.9681 0032101   0.1034   0.0164 14.55479893165356
SAUDICOMSAT 2           
1 28370U 04025E   26176.81993388  .00000218  00000+0  68062-4 0  9998
2 28370  98.6639 189.3104 0054448 232.8250 126.7965 14.49985427161351
APRIZESAT 1             
1 28372U 04025G   26176.49634704  .00000267  00000+0  77491-4 0  9998
2 28372  98.6302 187.4481 0045500 129.0332 231.4925 14.51781340163111
NANOSAT-1               
1 28493U 04049B   26176.82199191  .00000959  00000+0  13359-3 0  9991
2 28493  98.2285 313.6945 0002720 261.7414  98.3488 14.80175081156725
SAUDICOMSAT 7           
1 31119U 07012C   26176.84858001  .00000467  00000+0  92666-4 0  9990
2 31119  98.3780 151.1575 0055903 168.0170 192.2377 14.66117630 23700
SAUDICOMSAT 6           
1 31121U 07012E   26176.84716803  .00000492  00000+0  10382-3 0  9998
2 31121  98.4101 144.5248 0070589 300.4507  58.9733 14.62567362 21458
SAUDICOMSAT 5           
1 31124U 07012H   26176.87807922  .00000661  00000+0  12198-3 0  9992
2 31124  98.3493 151.9329 0048721  98.0554 262.6182 14.68167001 24874
SAUDICOMSAT 3           
1 31125U 07012J   26176.41533853  .00000833  00000+0  14377-3 0  9994
2 31125  98.3146 152.0084 0039764  27.8552 332.4771 14.70718774 26037
SAUDICOMSAT 4           
1 31127U 07012L   26176.83162481  .00000403  00000+0  83827-4 0  9997
2 31127  98.3986 149.5786 0062320 230.6776 128.8892 14.64519524 22556
APRIZESAT 4             
1 35684U 09041D   26176.14652464  .00000593  00000+0  77388-4 0  9997
2 35684  98.1409 251.6256 0042011 296.5870  63.1042 14.83888656912545
APRIZESAT 3             
1 35686U 09041F   26176.39137990  .00001200  00000+0  10807-3 0  9996
2 35686  98.2074 330.0086 0062609  41.0217 319.5687 14.96266472917607
S-NET D                 
1 43186U 18014G   26176.70864373  .00005508  00000+0  28398-3 0  9996
2 43186  97.5359  81.4457 0008026   2.7600 357.3675 15.16746562460056
S-NET B                 
1 43187U 18014H   26176.72026309  .00005459  00000+0  28172-3 0  9993
2 43187  97.5364  81.4444 0008454 356.9768   3.1412 15.16717275460057
S-NET A                 
1 43188U 18014J   26176.70747477  .00005654  00000+0  29135-3 0  9995
2 43188  97.5375  81.6419 0008381 358.0843   2.0356 15.16755198460051
S-NET C                 
1 43189U 18014K   26176.72418220  .00005559  00000+0  28684-3 0  9991
2 43189  97.5389  81.7349 0009468 348.6118  11.4899 15.16709603458601
SALSAT                  
1 46495U 20068K   26176.71389502  .00008822  00000+0  30719-3 0  9993
2 46495  97.8851 180.2981 0007800 271.7296  88.3050 15.29911798316664
OOV-CUBE (TUBSAT-30)    
1 60240U 24128F   26176.37277780  .00001619  00000+0  13378-3 0  9993
2 60240  61.9924 197.0293 0043615 135.5897 224.8705 15.02800403107349
LPNTSAT-001 (IOD-1)     
1 68408U 26065A   26176.64298003  .00002836  00000+0  14007-3 0  9992
2 68408  97.4014  56.9736 0015761 340.9774  19.0870 15.18577782 13542
